NORAD_CAT_ID,OBJECT_NAME,OBJECT_TYPE,EPOCH,MEAN_MOTION,ECCENTRICITY,INCLINATION,RA_OF_ASC_NODE,ARG_OF_PERICENTER,MEAN_ANOMALY,BSTAR,MEAN_MOTION_DOT,MEAN_MOTION_DDOT,TLE_LINE0,TLE_LINE1,TLE_LINE2,SEMIMAJOR_AXIS,PERIOD,APOGEE,PERIGEE,DECAYED
52586.0,STARLINK-3910,PAYLOAD,2024-02-15 07:38:39,15.08837405,0.0001444,53.2156,261.1351,91.8132,268.3026,7.4971e-05,9.05e-06,0.0,0 STARLINK-3910,1 52586U 22051BC  24046.31851681  .00000905  00000-0  74971-4 0  9991,2 52586  53.2156 261.1351 0001444  91.8132 268.3026 15.08837405 97853,6917.888,95.438,540.752,538.754,0.0
52586.0,STARLINK-3910,PAYLOAD,2024-02-15 20:21:45,15.0883721,0.0001496,53.2151,258.754,88.5384,271.5779,3.3578e-05,2.46e-06,0.0,0 STARLINK-3910,1 52586U 22051BC  24046.84843825  .00000246  00000-0  33578-4 0  9996,2 52586  53.2151 258.7540 0001496  88.5384 271.5779 15.08837210 97933,6917.889,95.438,540.789,538.719,0.0
52586.0,STARLINK-3910,PAYLOAD,2024-02-15 23:32:31,15.08841646,0.0001442,53.2169,258.1589,91.7116,268.4041,2.932e-05,1.79e-06,0.0,0 STARLINK-3910,1 52586U 22051BC  24046.98091841  .00000179  00000-0  29320-4 0  9999,2 52586  53.2169 258.1589 0001442  91.7116 268.4041 15.08841646 97956,6917.875,95.437,540.738,538.743,0.0
52586.0,STARLINK-3910,PAYLOAD,2024-02-16 20:12:31,15.08850339,0.000147,53.2159,254.2953,89.052,271.0641,0.00012198,1.654e-05,0.0,0 STARLINK-3910,1 52586U 22051BC  24047.84203073  .00001654  00000-0  12198-3 0  9990,2 52586  53.2159 254.2953 0001470  89.0520 271.0641 15.08850339 98155,6917.849,95.437,540.731,538.697,0.0
52586.0,STARLINK-3910,PAYLOAD,2024-02-16 23:23:17,15.08853129,0.0001436,53.2157,253.7003,88.2012,271.9145,0.00016543,2.347e-05,0.0,0 STARLINK-3910,1 52586U 22051BC  24047.97450880  .00002347  00000-0  16543-3 0  9992,2 52586  53.2157 253.7003 0001436  88.2012 271.9145 15.08853129 98105,6917.84,95.437,540.699,538.712,0.0
52586.0,STARLINK-3910,PAYLOAD,2024-02-17 20:03:18,15.08838728,0.0001403,53.2157,249.8306,93.0477,267.0676,8.6354e-05,1.087e-05,0.0,0 STARLINK-3910,1 52586U 22051BC  24048.83563594  .00001087  00000-0  86354-4 0  9993,2 52586  53.2157 249.8306 0001403  93.0477 267.0676 15.08838728 98305,6917.884,95.438,540.72,538.779,0.0
52586.0,STARLINK-3910,PAYLOAD,2024-02-18 13:32:33,15.08839344,0.0001334,53.2151,246.5639,101.7383,258.3759,-5.5904e-05,-1.177e-05,0.0,0 STARLINK-3910,1 52586U 22051BC  24049.56427665 -.00001177  00000-0 -55904-4 0  9991,2 52586  53.2151 246.5639 0001334 101.7383 258.3759 15.08839344 98342,6917.882,95.438,540.67,538.825,0.0
52586.0,STARLINK-3910,PAYLOAD,2024-02-18 19:54:05,15.08844772,0.0001264,53.2162,245.3752,100.0528,260.0607,-4.9419e-06,-3.67e-06,0.0,0 STARLINK-3910,1 52586U 22051BC  24049.82923583 -.00000367  00000-0 -49419-5 0  9995,2 52586  53.2162 245.3752 0001264 100.0528 260.0607 15.08844772 98389,6917.866,95.437,540.605,538.856,0.0
52586.0,STARLINK-3910,PAYLOAD,2024-02-19 19:44:53,15.08836466,0.0001316,53.2162,240.9152,93.408,266.7062,9.7707e-05,1.267e-05,0.0,0 STARLINK-3910,1 52586U 22051BC  24050.82284144  .00001267  00000-0  97707-4 0  9990,2 52586  53.2162 240.9152 0001316  93.4080 266.7062 15.08836466 98604,6917.891,95.438,540.667,538.846,0.0
52586.0,STARLINK-3910,PAYLOAD,2024-02-19 22:55:39,15.0884788,0.0001363,53.216,240.3193,104.8883,255.226,-3.2427e-05,-8.04e-06,0.0,0 STARLINK-3910,1 52586U 22051BC  24050.95531599 -.00000804  00000-0 -32427-4 0  9999,2 52586  53.2160 240.3193 0001363 104.8883 255.2260 15.08847880 98628,6917.856,95.437,540.664,538.778,0.0
52586.0,STARLINK-3910,PAYLOAD,2024-02-20 11:38:45,15.08836209,0.0001357,53.215,237.9394,107.354,252.7601,7.3835e-05,8.87e-06,0.0,0 STARLINK-3910,1 52586U 22051BC  24051.48524346  .00000887  00000-0  73835-4 0  9997,2 52586  53.2150 237.9394 0001357 107.3540 252.7601 15.08836209 98706,6917.892,95.438,540.696,538.818,0.0
52586.0,STARLINK-3910,PAYLOAD,2024-02-20 19:35:40,15.08842547,0.0001292,53.2165,236.4527,85.5317,274.5822,0.00011248,1.503e-05,0.0,0 STARLINK-3910,1 52586U 22051BC  24051.81643944  .00001503  00000-0  11248-3 0  9995,2 52586  53.2165 236.4527 0001292  85.5317 274.5822 15.08842547 98687,6917.873,95.437,540.631,538.844,0.0
52586.0,STARLINK-3910,PAYLOAD,2024-02-21 19:26:27,15.08842731,0.0001311,53.2168,231.992,88.6607,271.4536,0.00012025,1.627e-05,0.0,0 STARLINK-3910,1 52586U 22051BC  24052.81003915  .00001627  00000-0  12025-3 0  9995,2 52586  53.2168 231.9920 0001311  88.6607 271.4536 15.08842731 98835,6917.872,95.437,540.644,538.83,0.0
52586.0,STARLINK-3910,PAYLOAD,2024-02-22 11:20:18,15.08838906,0.0001227,53.2163,229.0195,92.0026,268.1106,9.7866e-05,1.27e-05,0.0,0 STARLINK-3910,1 52586U 22051BC  24053.47244154  .00001270  00000-0  97866-4 0  9991,2 52586  53.2163 229.0195 0001227  92.0026 268.1106 15.08838906 99007,6917.884,95.438,540.598,538.9,0.0
52586.0,STARLINK-3910,PAYLOAD,2024-02-22 19:17:14,15.08843794,0.0001272,53.2168,227.5339,89.1941,270.9197,6.7185e-05,7.82e-06,0.0,0 STARLINK-3910,1 52586U 22051BC  24053.80363852  .00000782  00000-0  67185-4 0  9993,2 52586  53.2168 227.5339 0001272  89.1941 270.9197 15.08843794 98986,6917.869,95.437,540.614,538.854,0.0
52586.0,STARLINK-3910,PAYLOAD,2024-02-23 04:49:33,15.08837582,0.000127,53.2171,225.748,86.6895,273.4243,2.0884e-05,4.4e-07,0.0,0 STARLINK-3910,1 52586U 22051BC  24054.20108366  .00000044  00000-0  20884-4 0  9991,2 52586  53.2171 225.7480 0001270  86.6895 273.4243 15.08837582 99041,6917.888,95.438,540.631,538.874,0.0
52586.0,STARLINK-3910,PAYLOAD,2024-02-23 17:32:38,15.08835865,0.0001299,53.2171,223.3681,91.3868,268.7272,-4.2901e-06,-3.56e-06,0.0,0 STARLINK-3910,1 52586U 22051BC  24054.73100669 -.00000356  00000-0 -42901-5 0  9990,2 52586  53.2171 223.3681 0001299  91.3868 268.7272 15.08835865 99199,6917.893,95.438,540.657,538.859,0.0
52586.0,STARLINK-3910,PAYLOAD,2024-02-24 14:12:39,15.08840074,0.0001123,53.2172,219.5032,90.3892,269.7229,0.00015551,2.188e-05,0.0,0 STARLINK-3910,1 52586U 22051BC  24055.59212191  .00002188  00000-0  15551-3 0  9991,2 52586  53.2172 219.5032 0001123  90.3892 269.7229 15.08840074 99257,6917.88,95.438,540.522,538.968,0.0
52586.0,STARLINK-3910,PAYLOAD,2024-02-24 17:23:25,15.08842021,0.0001136,53.2171,218.9084,89.8797,270.2325,0.00016596,2.355e-05,0.0,0 STARLINK-3910,1 52586U 22051BC  24055.72460078  .00002355  00000-0  16596-3 0  9991,2 52586  53.2171 218.9084 0001136  89.8797 270.2325 15.08842021 99345,6917.874,95.437,540.525,538.953,0.0
52586.0,STARLINK-3910,PAYLOAD,2024-02-25 14:03:26,15.08844277,0.0001274,53.2167,215.0431,84.761,275.3528,0.0001891,2.723e-05,0.0,0 STARLINK-3910,1 52586U 22051BC  24056.58571901  .00002723  00000-0  18910-3 0  9995,2 52586  53.2167 215.0431 0001274  84.7610 275.3528 15.08844277 99408,6917.867,95.437,540.614,538.851,0.0
52586.0,STARLINK-3910,PAYLOAD,2024-02-25 17:14:12,15.08849975,0.000125,53.2173,214.4485,84.8145,275.2989,0.00024352,3.591e-05,0.0,0 STARLINK-3910,1 52586U 22051BC  24056.71819520  .00003591  00000-0  24352-3 0  9993,2 52586  53.2173 214.4485 0001250  84.8145 275.2989 15.08849975 99427,6917.85,95.437,540.58,538.85,0.0
52586.0,STARLINK-3910,PAYLOAD,2024-02-26 13:54:13,15.08840441,0.0001334,53.2161,210.5826,81.1709,278.9434,4.7456e-08,-2.87e-06,0.0,0 STARLINK-3910,1 52586U 22051BC  24057.57932313 -.00000287  00000-0  47456-7 0  9998,2 52586  53.2161 210.5826 0001334  81.1709 278.9434 15.08840441 99557,6917.879,95.438,540.667,538.821,0.0
52586.0,STARLINK-3910,PAYLOAD,2024-02-26 17:04:59,15.08842906,0.0001269,53.2168,209.9885,78.3823,281.7312,1.3539e-05,-7.2e-07,0.0,0 STARLINK-3910,1 52586U 22051BC  24057.71180173 -.00000072  00000-0  13539-4 0  9997,2 52586  53.2168 209.9885 0001269  78.3823 281.7312 15.08842906 99648,6917.872,95.437,540.614,538.859,0.0
52586.0,STARLINK-3910,PAYLOAD,2024-02-27 10:34:14,15.08834172,0.0001379,53.2174,206.718,89.0506,271.0644,-7.9607e-05,-1.554e-05,0.0,0 STARLINK-3910,1 52586U 22051BC  24058.44044697 -.00001554  00000-0 -79607-4 0  9993,2 52586  53.2174 206.7180 0001379  89.0506 271.0644 15.08834172 99755,6917.898,95.438,540.717,538.809,0.0
52586.0,STARLINK-3910,PAYLOAD,2024-02-27 13:45:01,15.08837289,0.0001399,53.2179,206.1233,89.6988,270.4164,-3.6918e-05,-8.75e-06,0.0,0 STARLINK-3910,1 52586U 22051BC  24058.57293020 -.00000875  00000-0 -36918-4 0  9996,2 52586  53.2179 206.1233 0001399  89.6988 270.4164 15.08837289 99702,6917.889,95.438,540.721,538.786,0.0
52586.0,STARLINK-3910,PAYLOAD,2024-02-27 20:06:33,15.08842442,0.0001196,53.2165,204.9308,83.0249,277.0879,1.4399e-05,-5.9e-07,0.0,0 STARLINK-3910,1 52586U 22051BC  24058.83788522 -.00000059  00000-0  14399-4 0  9993,2 52586  53.2165 204.9308 0001196  83.0249 277.0879 15.08842442 99746,6917.873,95.437,540.565,538.911,0.0
52586.0,STARLINK-3910,PAYLOAD,2024-02-28 13:35:48,15.08831759,0.0001412,53.2178,201.6632,96.0364,264.079,7.5318e-06,-1.68e-06,0.0,0 STARLINK-3910,1 52586U 22051BC  24059.56653678 -.00000168  00000-0  75318-5 0  9997,2 52586  53.2178 201.6632 0001412  96.0364 264.0790 15.08831759 99856,6917.906,95.438,540.747,538.794,0.0
52586.0,STARLINK-3910,PAYLOAD,2024-02-28 19:57:20,15.0883822,0.0001327,53.2167,200.4688,98.8819,261.2323,0.00012343,1.677e-05,0.0,0 STARLINK-3910,1 52586U 22051BC  24059.83148957  .00001677  00000-0  12343-3 0  9998,2 52586  53.2167 200.4688 0001327  98.8819 261.2323 15.08838220 99965,6917.886,95.438,540.669,538.833,0.0
52586.0,STARLINK-3910,PAYLOAD,2024-02-29 15:01:58,15.08844832,0.0001583,53.218,196.9062,91.8618,268.2555,0.00017511,2.5e-05,0.0,0 STARLINK-3910,1 52586U 22051BC  24060.62636737  .00002500  00000-0  17511-3 0  9993,2 52586  53.2180 196.9062 0001583  91.8618 268.2555 15.08844832100018,6917.866,95.437,540.826,538.636,0.0
52586.0,STARLINK-3910,PAYLOAD,2024-02-29 16:37:21,15.08845777,0.00015,53.2175,196.6088,89.2009,270.9155,0.00018256,2.619e-05,0.0,0 STARLINK-3910,1 52586U 22051BC  24060.69260635  .00002619  00000-0  18256-3 0  9998,2 52586  53.2175 196.6088 0001500  89.2009 270.9155 15.08845777100027,6917.863,95.437,540.765,538.69,0.0
